{
  "norad_id": 63385,
  "name": "STARLINK-33616",
  "history": [
    {
      "epoch": "2026-03-28T22:03:28.586304Z",
      "apogee_km": 475.67840070624516,
      "perigee_km": 474.70372038947426,
      "latitude_deg": -2.2201737468061217e-05,
      "longitude_deg": 176.59055049218196,
      "height_km": 476.3344237406263,
      "semi_major_axis_km": 6853.328060547859,
      "eccentricity": 7.111e-05,
      "inclination_deg": 53.1597,
      "raan_deg": 333.7923,
      "arg_perigee_deg": 120.106,
      "mean_anomaly_deg": 240.0011,
      "mean_motion_rev_day": 15.30208041
    },
    {
      "epoch": "2026-03-29T01:11:35.224800Z",
      "apogee_km": 475.8347246319272,
      "perigee_km": 474.6614251071087,
      "latitude_deg": 3.995830332693852e-05,
      "longitude_deg": 128.827279239569,
      "height_km": 476.29829892157653,
      "semi_major_axis_km": 6853.385074869518,
      "eccentricity": 8.56e-05,
      "inclination_deg": 53.1594,
      "raan_deg": 333.1854,
      "arg_perigee_deg": 104.9794,
      "mean_anomaly_deg": 255.1302,
      "mean_motion_rev_day": 15.30188946
    },
    {
      "epoch": "2026-03-29T23:08:19.988736Z",
      "apogee_km": 475.91113938914714,
      "perigee_km": 474.52347220930824,
      "latitude_deg": -5.866204391661695e-05,
      "longitude_deg": 154.49080916811977,
      "height_km": 475.73634938727434,
      "semi_major_axis_km": 6853.354305799227,
      "eccentricity": 0.00010124,
      "inclination_deg": 53.1582,
      "raan_deg": 328.9368,
      "arg_perigee_deg": 56.8491,
      "mean_anomaly_deg": 303.2606,
      "mean_motion_rev_day": 15.30199251
    },
    {
      "epoch": "2026-03-30T14:48:52.169472Z",
      "apogee_km": 475.9884688440461,
      "perigee_km": 474.4265916256054,
      "latitude_deg": -1.4009809467866902e-05,
      "longitude_deg": -84.31691748294075,
      "height_km": 476.0740862169102,
      "semi_major_axis_km": 6853.3445302348255,
      "eccentricity": 0.00011395,
      "inclination_deg": 53.1593,
      "raan_deg": 325.9069,
      "arg_perigee_deg": 87.679,
      "mean_anomaly_deg": 272.4341,
      "mean_motion_rev_day": 15.30202525
    },
    {
      "epoch": "2026-03-30T21:05:04.824384Z",
      "apogee_km": 476.05618198184766,
      "perigee_km": 474.35806037550265,
      "latitude_deg": 2.9059217392062875e-05,
      "longitude_deg": -179.84092111320746,
      "height_km": 476.3705357820346,
      "semi_major_axis_km": 6853.344121178675,
      "eccentricity": 0.00012389,
      "inclination_deg": 53.1592,
      "raan_deg": 324.6931,
      "arg_perigee_deg": 108.2082,
      "mean_anomaly_deg": 251.9054,
      "mean_motion_rev_day": 15.30202662
    },
    {
      "epoch": "2026-03-31T08:03:27.402048Z",
      "apogee_km": 476.08068575817106,
      "perigee_km": 474.3295197840698,
      "latitude_deg": -5.3924351052434745e-06,
      "longitude_deg": 12.988737669137002,
      "height_km": 476.00022115827426,
      "semi_major_axis_km": 6853.34210277112,
      "eccentricity": 0.00012776,
      "inclination_deg": 53.1587,
      "raan_deg": 322.5675,
      "arg_perigee_deg": 83.256,
      "mean_anomaly_deg": 276.8586,
      "mean_motion_rev_day": 15.30203338
    },
    {
      "epoch": "2026-04-01T01:18:02.439360Z",
      "apogee_km": 475.70842745996106,
      "perigee_km": 474.6372551317663,
      "latitude_deg": -5.009349664683075e-06,
      "longitude_deg": 110.29830259947427,
      "height_km": 476.10744837845016,
      "semi_major_axis_km": 6853.309841295863,
      "eccentricity": 7.815e-05,
      "inclination_deg": 53.1582,
      "raan_deg": 319.2312,
      "arg_perigee_deg": 93.861,
      "mean_anomaly_deg": 266.248,
      "mean_motion_rev_day": 15.30214143
    },
    {
      "epoch": "2026-04-02T21:11:31.255296Z",
      "apogee_km": 476.10061722521914,
      "perigee_km": 473.91884943119567,
      "latitude_deg": 2.7981680620679708e-05,
      "longitude_deg": 161.62930937270215,
      "height_km": 476.17430827927217,
      "semi_major_axis_km": 6853.146733328207,
      "eccentricity": 0.00015918,
      "inclination_deg": 53.1581,
      "raan_deg": 310.7348,
      "arg_perigee_deg": 104.171,
      "mean_anomaly_deg": 255.9468,
      "mean_motion_rev_day": 15.30268773
    },
    {
      "epoch": "2026-04-03T20:42:20.057760Z",
      "apogee_km": 476.08294108873815,
      "perigee_km": 474.4888349249886,
      "latitude_deg": 1.8721857437006874e-06,
      "longitude_deg": 163.41057889420992,
      "height_km": 475.7853431180161,
      "semi_major_axis_km": 6853.422888006863,
      "eccentricity": 0.0001163,
      "inclination_deg": 53.1593,
      "raan_deg": 306.1851,
      "arg_perigee_deg": 59.9691,
      "mean_anomaly_deg": 300.1425,
      "mean_motion_rev_day": 15.30176282
    },
    {
      "epoch": "2026-04-04T20:13:07.963392Z",
      "apogee_km": 475.87616871926457,
      "perigee_km": 474.54387805791885,
      "latitude_deg": 1.912913457072293e-05,
      "longitude_deg": 165.19212693005952,
      "height_km": 475.7622084078632,
      "semi_major_axis_km": 6853.347023388592,
      "eccentricity": 9.72e-05,
      "inclination_deg": 53.1599,
      "raan_deg": 301.6319,
      "arg_perigee_deg": 58.6599,
      "mean_anomaly_deg": 301.4497,
      "mean_motion_rev_day": 15.3020169
    },
    {
      "epoch": "2026-04-05T07:11:30.466752Z",
      "apogee_km": 475.9528439439546,
      "perigee_km": 474.4793730256306,
      "latitude_deg": -3.0200625523651457e-05,
      "longitude_deg": -1.9761162220713302,
      "height_km": 476.0471797352569,
      "semi_major_axis_km": 6853.353108484793,
      "eccentricity": 0.0001075,
      "inclination_deg": 53.1601,
      "raan_deg": 299.5081,
      "arg_perigee_deg": 84.7595,
      "mean_anomaly_deg": 275.3528,
      "mean_motion_rev_day": 15.30199652
    },
    {
      "epoch": "2026-04-05T19:43:55.894944Z",
      "apogee_km": 476.23550882450127,
      "perigee_km": 474.0931668262974,
      "latitude_deg": 1.293300989466932e-05,
      "longitude_deg": 166.9767483851057,
      "height_km": 476.05616636898833,
      "semi_major_axis_km": 6853.301337825399,
      "eccentricity": 0.0001563,
      "inclination_deg": 53.1607,
      "raan_deg": 297.0819,
      "arg_perigee_deg": 89.6834,
      "mean_anomaly_deg": 270.4346,
      "mean_motion_rev_day": 15.30216991
    },
    {
      "epoch": "2026-04-06T06:42:18.218592Z",
      "apogee_km": 475.9145781668558,
      "perigee_km": 474.4590692531774,
      "latitude_deg": -1.0682053566873668e-05,
      "longitude_deg": -0.19102508342708965,
      "height_km": 476.0372646383797,
      "semi_major_axis_km": 6853.323823710017,
      "eccentricity": 0.00010619,
      "inclination_deg": 53.16,
      "raan_deg": 294.9578,
      "arg_perigee_deg": 86.2241,
      "mean_anomaly_deg": 273.8881,
      "mean_motion_rev_day": 15.3020946
    },
    {
      "epoch": "2026-04-07T12:29:19.146336Z",
      "apogee_km": 476.4314094397705,
      "perigee_km": 473.9433785517749,
      "latitude_deg": -5.275913917987251e-05,
      "longitude_deg": -93.93029396534203,
      "height_km": 475.8731624998775,
      "semi_major_axis_km": 6853.324393995773,
      "eccentricity": 0.00018152,
      "inclination_deg": 53.1612,
      "raan_deg": 289.1956,
      "arg_perigee_deg": 80.201,
      "mean_anomaly_deg": 279.9195,
      "mean_motion_rev_day": 15.30209269
    },
    {
      "epoch": "2026-04-07T20:19:34.968864Z",
      "apogee_km": 475.92938007470275,
      "perigee_km": 474.48195410341395,
      "latitude_deg": -9.111729395159995e-06,
      "longitude_deg": 146.66402632376014,
      "height_km": 476.0314864494142,
      "semi_major_axis_km": 6853.3426670890585,
      "eccentricity": 0.0001056,
      "inclination_deg": 53.161,
      "raan_deg": 287.6777,
      "arg_perigee_deg": 84.2375,
      "mean_anomaly_deg": 275.8746,
      "mean_motion_rev_day": 15.30203149
    },
    {
      "epoch": "2026-04-08T12:00:06.940512Z",
      "apogee_km": 476.14940383821886,
      "perigee_km": 474.2443140921041,
      "latitude_deg": 8.5153680366936e-06,
      "longitude_deg": -92.14704960485521,
      "height_km": 476.0584048705139,
      "semi_major_axis_km": 6853.333858965161,
      "eccentricity": 0.00013899,
      "inclination_deg": 53.1621,
      "raan_deg": 284.6436,
      "arg_perigee_deg": 87.7984,
      "mean_anomaly_deg": 272.3176,
      "mean_motion_rev_day": 15.30206099
    },
    {
      "epoch": "2026-04-09T20:55:13.929600Z",
      "apogee_km": 475.8709093821708,
      "perigee_km": 474.49325518025034,
      "latitude_deg": -6.349275774063237e-05,
      "longitude_deg": 126.35185227215484,
      "height_km": 476.1124160429794,
      "semi_major_axis_km": 6853.31908228121,
      "eccentricity": 0.00010051,
      "inclination_deg": 53.1602,
      "raan_deg": 278.2736,
      "arg_perigee_deg": 92.6514,
      "mean_anomaly_deg": 267.4601,
      "mean_motion_rev_day": 15.30211048
    },
    {
      "epoch": "2026-04-11T19:56:49.924896Z",
      "apogee_km": 475.8668724474528,
      "perigee_km": 474.5647354147068,
      "latitude_deg": -2.0302335507828927e-05,
      "longitude_deg": 129.91818347708852,
      "height_km": 476.0146378223139,
      "semi_major_axis_km": 6853.3528039310795,
      "eccentricity": 9.5e-05,
      "inclination_deg": 53.158,
      "raan_deg": 269.1712,
      "arg_perigee_deg": 81.2113,
      "mean_anomaly_deg": 278.8995,
      "mean_motion_rev_day": 15.30199754
    },
    {
      "epoch": "2026-04-13T03:17:53.782656Z",
      "apogee_km": 475.9300756583998,
      "perigee_km": 474.49635479337485,
      "latitude_deg": 2.7885463523817522e-05,
      "longitude_deg": 12.293801930127966,
      "height_km": 475.69108186054586,
      "semi_major_axis_km": 6853.350215225887,
      "eccentricity": 0.0001046,
      "inclination_deg": 53.1578,
      "raan_deg": 263.1004,
      "arg_perigee_deg": 54.0806,
      "mean_anomaly_deg": 306.0292,
      "mean_motion_rev_day": 15.30200621
    }
  ]
}